NORAD_CAT_ID,OBJECT_NAME,OBJECT_TYPE,EPOCH,MEAN_MOTION,ECCENTRICITY,INCLINATION,RA_OF_ASC_NODE,ARG_OF_PERICENTER,MEAN_ANOMALY,BSTAR,MEAN_MOTION_DOT,MEAN_MOTION_DDOT,TLE_LINE0,TLE_LINE1,TLE_LINE2,SEMIMAJOR_AXIS,PERIOD,APOGEE,PERIGEE,DECAYED
52586.0,STARLINK-3910,PAYLOAD,2022-09-17 16:56:20,15.08829785,0.0001541,53.219,55.7994,68.0745,292.0411,-1.4043e-05,-5.11e-06,0.0,0 STARLINK-3910,1 52586U 22051BC  22260.70579130 -.00000511  00000-0 -14043-4 0  9995,2 52586  53.2190  55.7994 0001541  68.0745 292.0411 15.08829785 20080,6917.9119999999975,95.438,540.8430000000002,538.711,0.0
52586.0,STARLINK-3910,PAYLOAD,2022-09-18 05:39:25,15.08837388,0.0001571999999999,53.2191,53.4208,65.4165,294.6991,-8.8476e-06,-4.29e-06,0.0,0 STARLINK-3910,1 52586U 22051BC  22261.23570876 -.00000429  00000-0 -88476-5 0  9992,2 52586  53.2191  53.4208 0001572  65.4165 294.6991 15.08837388 20163,6917.888000000001,95.438,540.841,538.6659999999998,0.0
52586.0,STARLINK-3910,PAYLOAD,2022-09-18 12:00:57,15.08834511,0.0001446,53.2186,52.2288,81.3986,278.717,0.00011629,1.563e-05,0.0,0 STARLINK-3910,1 52586U 22051BC  22261.50066610  .00001563  00000-0  11629-3 0  9990,2 52586  53.2186  52.2288 0001446  81.3986 278.7170 15.08834511 20134,6917.897,95.438,540.762,538.762,0.0
52586.0,STARLINK-3910,PAYLOAD,2022-09-18 19:57:52,15.08842256,0.0001554,53.2192,50.7441,70.1635,289.9524,0.0001069,1.414e-05,0.0,0 STARLINK-3910,1 52586U 22051BC  22261.83186307  .00001414  00000-0  10690-3 0  9994,2 52586  53.2192  50.7441 0001554  70.1635 289.9524 15.08842256 20189,6917.873000000001,95.437,540.814,538.663,0.0
52586.0,STARLINK-3910,PAYLOAD,2022-09-19 10:16:21,15.08836315,0.0001695,53.2194,48.069,58.2965,301.8192,0.00014273,1.984e-05,0.0,0 STARLINK-3910,1 52586U 22051BC  22262.42802612  .00001984  00000-0  14273-3 0  9997,2 52586  53.2194  48.0690 0001695  58.2965 301.8192 15.08836315 20270,6917.892,95.438,540.929,538.5840000000002,0.0
52586.0,STARLINK-3910,PAYLOAD,2022-09-19 13:27:07,15.08834665,0.000166,53.2193,47.4737,59.6062,300.5094,0.00012266,1.664e-05,0.0,0 STARLINK-3910,1 52586U 22051BC  22262.56050795  .00001664  00000-0  12266-3 0  9994,2 52586  53.2193  47.4737 0001660  59.6062 300.5094 15.08834665 20294,6917.897,95.438,540.91,538.613,0.0
52586.0,STARLINK-3910,PAYLOAD,2022-09-20 10:07:09,15.08834258,0.0001525,53.2186,43.6075,73.6696,286.4464,-8.380599999999999e-06,-4.21e-06,0.0,0 STARLINK-3910,1 52586U 22051BC  22263.42163419 -.00000421  00000-0 -83806-5 0  9990,2 52586  53.2186  43.6075 0001525  73.6696 286.4464 15.08834258 20424,6917.898,95.438,540.818,538.7080000000002,0.0
52586.0,STARLINK-3910,PAYLOAD,2022-09-20 16:28:41,15.0884135,0.0001508,53.2194,42.4188,61.7608,298.3537,4.026e-05,3.53e-06,0.0,0 STARLINK-3910,1 52586U 22051BC  22263.68658905  .00000353  00000-0  40260-4 0  9995,2 52586  53.2194  42.4188 0001508  61.7608 298.3537 15.08841350 20465,6917.876,95.437,540.784,538.698,0.0
52586.0,STARLINK-3910,PAYLOAD,2022-09-21 16:19:27,15.08849343,0.0001333,53.2227,37.9588,18.7566,341.3475,-5.4842e-05,-1.161e-05,0.0,0 STARLINK-3910,1 52586U 22051BC  22264.68018324 -.00001161  00000-0 -54842-4 0  9992,2 52586  53.2227  37.9588 0001333  18.7566 341.3475 15.08849343 20613,6917.852,95.437,540.639,538.795,0.0
52586.0,STARLINK-3910,PAYLOAD,2022-09-22 12:59:30,15.08798588,0.0001703,53.22,34.0924,55.4678,304.6475,0.00056203,8.658e-05,0.0,0 STARLINK-3910,1 52586U 22051BC  22265.54132102  .00008658  00000-0  56203-3 0  9997,2 52586  53.2200  34.0924 0001703  55.4678 304.6475 15.08798588 20749,6918.007,95.44,541.05,538.694,0.0
52586.0,STARLINK-3910,PAYLOAD,2022-09-22 16:10:16,15.08805604,0.0001561,53.2203,33.4977,60.0454,300.0693,0.0004721999999999,7.228e-05,0.0,0 STARLINK-3910,1 52586U 22051BC  22265.67380151  .00007228  00000-0  47220-3 0  9991,2 52586  53.2203  33.4977 0001561  60.0454 300.0693 15.08805604 20761,6917.986,95.44,540.93,538.771,0.0
52586.0,STARLINK-3910,PAYLOAD,2022-09-23 03:17:57,15.08836907,0.0001486,53.2199,31.4166,59.5729,300.541,-3.3276e-05,-8.17e-06,0.0,0 STARLINK-3910,1 52586U 22051BC  22266.13747492 -.00000817  00000-0 -33276-4 0  9994,2 52586  53.2199  31.4166 0001486  59.5729 300.5410 15.08836907 20905,6917.89,95.438,540.783,538.727,0.0
52586.0,STARLINK-3910,PAYLOAD,2022-09-23 12:50:17,15.08830499,0.0001684,53.2199,29.6336,55.594,304.5211,-7.455e-06,-4.07e-06,0.0,0 STARLINK-3910,1 52586U 22051BC  22266.53492015 -.00000407  00000-0 -74550-5 0  9992,2 52586  53.2199  29.6336 0001684  55.5940 304.5211 15.08830499 20895,6917.909000000002,95.438,540.939,538.609,0.0
52586.0,STARLINK-3910,PAYLOAD,2022-09-23 16:01:02,15.08839083,0.0001537,53.2203,29.038,51.7359,308.3771,6.656899999999999e-05,7.72e-06,0.0,0 STARLINK-3910,1 52586U 22051BC  22266.66739289  .00000772  00000-0  66569-4 0  9996,2 52586  53.2203  29.0380 0001537  51.7359 308.3771 15.08839083 20917,6917.8830000000025,95.438,540.811,538.685,0.0
52586.0,STARLINK-3910,PAYLOAD,2022-09-24 14:16:26,15.08836792,0.0001647,53.22,24.8757,58.9761,301.1393,3.5975e-05,2.85e-06,0.0,0 STARLINK-3910,1 52586U 22051BC  22267.59475643  .00000285  00000-0  35975-4 0  9996,2 52586  53.2200  24.8757 0001647  58.9761 301.1393 15.08836792 21122,6917.89,95.438,540.895,538.616,0.0
52586.0,STARLINK-3910,PAYLOAD,2022-09-25 01:24:08,15.08847993,0.0001653,53.2204,22.7938,60.4571,299.6585,8.212100000000001e-05,1.019e-05,0.0,0 STARLINK-3910,1 52586U 22051BC  22268.05842735  .00001019  00000-0  82121-4 0  9999,2 52586  53.2204  22.7938 0001653  60.4571 299.6585 15.08847993 21194,6917.856,95.437,540.864,538.577,0.0
52586.0,STARLINK-3910,PAYLOAD,2022-09-25 14:07:13,15.0884262,0.0001703,53.22,20.4155,58.7693,301.3466,0.00013032,1.787e-05,0.0,0 STARLINK-3910,1 52586U 22051BC  22268.58834801  .00001787  00000-0  13032-3 0  9998,2 52586  53.2200  20.4155 0001703  58.7693 301.3466 15.08842620 21200,6917.871999999999,95.437,540.915,538.559,0.0
52586.0,STARLINK-3910,PAYLOAD,2022-09-27 04:16:29,15.08838861,0.0001735,53.22,13.2794,55.9863,304.1293,-2.6793e-05,-7.14e-06,0.0,0 STARLINK-3910,1 52586U 22051BC  22270.17811857 -.00000714  00000-0 -26793-4 0  9992,2 52586  53.2200  13.2794 0001735  55.9863 304.1293 15.08838861 21517,6917.884,95.438,540.9490000000002,538.549,0.0
52586.0,STARLINK-3910,PAYLOAD,2022-09-27 13:48:47,15.0885007,0.0001737,53.22,11.4957,54.4485,305.6669,7.1084e-05,8.44e-06,0.0,0 STARLINK-3910,1 52586U 22051BC  22270.57554782  .00000844  00000-0  71084-4 0  9992,2 52586  53.2200  11.4957 0001737  54.4485 305.6669 15.08850070 21579,6917.85,95.437,540.9159999999998,538.513,0.0
52586.0,STARLINK-3910,PAYLOAD,2022-09-27 18:34:57,15.0883952,0.0001774,53.2201,10.6031,53.8765,306.2391,1.4190999999999992e-05,-6.2e-07,0.0,0 STARLINK-3910,1 52586U 22051BC  22270.77427542 -.00000062  00000-0  14191-4 0  9996,2 52586  53.2201  10.6031 0001774  53.8765 306.2391 15.08839520 21609,6917.882,95.438,540.974,538.52,0.0
52586.0,STARLINK-3910,PAYLOAD,2022-09-28 13:39:33,15.0885695,0.0001674,53.2201,7.0354,55.5105,304.6045,0.00017424,2.487e-05,0.0,0 STARLINK-3910,1 52586U 22051BC  22271.56914342  .00002487  00000-0  17424-3 0  9996,2 52586  53.2201   7.0354 0001674  55.5105 304.6045 15.08856950 21652,6917.829000000002,95.436,540.852,538.536,0.0
52586.0,STARLINK-3910,PAYLOAD,2022-09-28 20:01:07,15.08847317,0.0001574,53.22,5.8457,55.6266,304.4875,9.8637e-05,1.282e-05,0.0,0 STARLINK-3910,1 52586U 22051BC  22271.83411023  .00001282  00000-0  98637-4 0  9992,2 52586  53.2200   5.8457 0001574  55.6266 304.4875 15.08847317 21699,6917.858,95.437,540.812,538.634,0.0
52586.0,STARLINK-3910,PAYLOAD,2022-09-29 03:58:03,15.08827603,0.0001806,53.2195,4.3599,44.2227,315.8909,-0.00023145,-3.969e-05,0.0,0 STARLINK-3910,1 52586U 22051BC  22272.16531970 -.00003969  00000-0 -23145-3 0  9990,2 52586  53.2195   4.3599 0001806  44.2227 315.8909 15.08827603 21816,6917.918000000002,95.438,541.033,538.534,0.0
52586.0,STARLINK-3910,PAYLOAD,2022-09-29 11:55:00,15.08818228,0.0001666999999999,53.2194,2.8728,53.496,306.6185,-0.00031373,-5.275e-05,0.0,0 STARLINK-3910,1 52586U 22051BC  22272.49652819 -.00005275  00000-0 -31373-3 0  9996,2 52586  53.2194   2.8728 0001667  53.4960 306.6185 15.08818228 21797,6917.946999999999,95.439,540.965,538.659,0.0
52586.0,STARLINK-3910,PAYLOAD,2022-09-29 19:51:55,15.08819107,0.0001631999999999,53.2191,1.3861,52.3203,307.7937,-0.0002615,-4.445e-05,0.0,0 STARLINK-3910,1 52586U 22051BC  22272.82772688 -.00004445  00000-0 -26150-3 0  9995,2 52586  53.2191   1.3861 0001632  52.3203 307.7937 15.08819107 21846,6917.944,95.439,540.938,538.68,0.0
52586.0,STARLINK-3910,PAYLOAD,2022-09-30 02:13:28,15.08825914,0.0001641999999999,53.2189,0.1972,43.3805,316.7317,0.00095659,0.00014963,0.0,0 STARLINK-3910,1 52586U 22051BC  22273.09269036  .00014963  00000-0  95659-3 0  9997,2 52586  53.2189   0.1972 0001642  43.3805 316.7317 15.08825914 21959,6917.9230000000025,95.438,540.924,538.653,0.0
52586.0,STARLINK-3910,PAYLOAD,2022-09-30 11:45:47,15.08855959,0.0001609,53.2186,358.4134,44.7069,315.4052,0.0019919,0.00031569,0.0,0 STARLINK-3910,1 52586U 22051BC  22273.49013024  .00031569  00000-0  19919-2 0  9990,2 52586  53.2186 358.4134 0001609  44.7069 315.4052 15.08855959 21948,6917.831999999999,95.437,540.81,538.5840000000002,0.0
52586.0,STARLINK-3910,PAYLOAD,2022-09-30 16:31:56,15.08858602,0.0001621,53.2186,357.5207,48.7672,311.346,0.0013925,0.00021954,0.0,0 STARLINK-3910,1 52586U 22051BC  22273.68884723  .00021954  00000-0  13925-2 0  9991,2 52586  53.2186 357.5207 0001621  48.7672 311.3460 15.08858602 22045,6917.824000000001,95.436,540.81,538.567,0.0
52586.0,STARLINK-3910,PAYLOAD,2022-09-30 19:42:42,15.08863069,0.0001545,53.2185,356.9258,48.7382,311.3743,0.0012785,0.00020131,0.0,0 STARLINK-3910,1 52586U 22051BC  22273.82132482  .00020131  00000-0  12785-2 0  9994,2 52586  53.2185 356.9258 0001545  48.7382 311.3743 15.08863069 21996,6917.81,95.436,540.744,538.606,0.0
